CCSDS_OMM_VERS = 2.0
CREATION_DATE  = 
ORIGINATOR     = 

OBJECT_NAME    = H-2A R/B
OBJECT_ID      = 2006-002B
CENTER_NAME    = EARTH
REF_FRAME      = TEME
TIME_SYSTEM    = UTC
MEAN_ELEMENT_THEORY = SGP/SGP4

EPOCH          = 2026-04-05T20:32:41.290944
MEAN_MOTION    = 15.17083541
ECCENTRICITY   = .0052497
INCLINATION    = 98.2468
RA_OF_ASC_NODE = 245.2370
ARG_OF_PERICENTER = 148.4642
MEAN_ANOMALY   = 211.9754

EPHEMERIS_TYPE = 0
CLASSIFICATION_TYPE = U
NORAD_CAT_ID   = 28932
ELEMENT_SET_NO = 999
REV_AT_EPOCH   = 9855
BSTAR          = .59019E-3
MEAN_MOTION_DOT = .12042E-3
MEAN_MOTION_DDOT = 0

CCSDS_OMM_VERS = 2.0
CREATION_DATE  = 
ORIGINATOR     = 

OBJECT_NAME    = RESURS-DK 1
OBJECT_ID      = 2006-021A
CENTER_NAME    = EARTH
REF_FRAME      = TEME
TIME_SYSTEM    = UTC
MEAN_ELEMENT_THEORY = SGP/SGP4

EPOCH          = 2026-04-05T15:28:23.045952
MEAN_MOTION    = 15.12918268
ECCENTRICITY   = .0002088
INCLINATION    = 69.9329
RA_OF_ASC_NODE = 167.2939
ARG_OF_PERICENTER = 31.5145
MEAN_ANOMALY   = 328.6145

EPHEMERIS_TYPE = 0
CLASSIFICATION_TYPE = U
NORAD_CAT_ID   = 29228
ELEMENT_SET_NO = 999
REV_AT_EPOCH   = 9160
BSTAR          = .18657E-3
MEAN_MOTION_DOT = .3187E-4
MEAN_MOTION_DDOT = 0

CCSDS_OMM_VERS = 2.0
CREATION_DATE  = 
ORIGINATOR     = 

OBJECT_NAME    = CZ-4B R/B
OBJECT_ID      = 2006-046C
CENTER_NAME    = EARTH
REF_FRAME      = TEME
TIME_SYSTEM    = UTC
MEAN_ELEMENT_THEORY = SGP/SGP4

EPOCH          = 2026-04-05T17:14:54.956832
MEAN_MOTION    = 15.17204599
ECCENTRICITY   = .0033427
INCLINATION    = 97.5534
RA_OF_ASC_NODE = 140.5519
ARG_OF_PERICENTER = 171.1316
MEAN_ANOMALY   = 189.0515

EPHEMERIS_TYPE = 0
CLASSIFICATION_TYPE = U
NORAD_CAT_ID   = 29507
ELEMENT_SET_NO = 999
REV_AT_EPOCH   = 6414
BSTAR          = .30092E-3
MEAN_MOTION_DOT = .5997E-4
MEAN_MOTION_DDOT = 0

CCSDS_OMM_VERS = 2.0
CREATION_DATE  = 
ORIGINATOR     = 

OBJECT_NAME    = CZ-2C R/B
OBJECT_ID      = 2007-010B
CENTER_NAME    = EARTH
REF_FRAME      = TEME
TIME_SYSTEM    = UTC
MEAN_ELEMENT_THEORY = SGP/SGP4

EPOCH          = 2026-04-05T20:22:54.394752
MEAN_MOTION    = 14.20256946
ECCENTRICITY   = .0058413
INCLINATION    = 98.4007
RA_OF_ASC_NODE = 207.7704
ARG_OF_PERICENTER = 214.2705
MEAN_ANOMALY   = 145.4697

EPHEMERIS_TYPE = 0
CLASSIFICATION_TYPE = U
NORAD_CAT_ID   = 31114
ELEMENT_SET_NO = 999
REV_AT_EPOCH   = 98357
BSTAR          = .10999E-3
MEAN_MOTION_DOT = .198E-5
MEAN_MOTION_DDOT = 0

CCSDS_OMM_VERS = 2.0
CREATION_DATE  = 
ORIGINATOR     = 

OBJECT_NAME    = COSMO-SKYMED 1
OBJECT_ID      = 2007-023A
CENTER_NAME    = EARTH
REF_FRAME      = TEME
TIME_SYSTEM    = UTC
MEAN_ELEMENT_THEORY = SGP/SGP4

EPOCH          = 2026-04-05T19:24:34.149312
MEAN_MOTION    = 14.96751764
ECCENTRICITY   = .0001681
INCLINATION    = 97.8876
RA_OF_ASC_NODE = 287.0624
ARG_OF_PERICENTER = 98.1800
MEAN_ANOMALY   = 261.9611

EPHEMERIS_TYPE = 0
CLASSIFICATION_TYPE = U
NORAD_CAT_ID   = 31598
ELEMENT_SET_NO = 999
REV_AT_EPOCH   = 1896
BSTAR          = .45748E-3
MEAN_MOTION_DOT = .5172E-4
MEAN_MOTION_DDOT = 0

CCSDS_OMM_VERS = 2.0
CREATION_DATE  = 
ORIGINATOR     = 

OBJECT_NAME    = COSMOS 2428
OBJECT_ID      = 2007-029A
CENTER_NAME    = EARTH
REF_FRAME      = TEME
TIME_SYSTEM    = UTC
MEAN_ELEMENT_THEORY = SGP/SGP4

EPOCH          = 2026-04-05T20:40:40.272672
MEAN_MOTION    = 14.12948946
ECCENTRICITY   = .0009681
INCLINATION    = 70.9420
RA_OF_ASC_NODE = 146.3147
ARG_OF_PERICENTER = 248.7861
MEAN_ANOMALY   = 111.2227

EPHEMERIS_TYPE = 0
CLASSIFICATION_TYPE = U
NORAD_CAT_ID   = 31792
ELEMENT_SET_NO = 999
REV_AT_EPOCH   = 96793
BSTAR          = .87978E-6
MEAN_MOTION_DOT = -.46E-6
MEAN_MOTION_DDOT = 0

CCSDS_OMM_VERS = 2.0
CREATION_DATE  = 
ORIGINATOR     = 

OBJECT_NAME    = SL-16 R/B
OBJECT_ID      = 2007-029B
CENTER_NAME    = EARTH
REF_FRAME      = TEME
TIME_SYSTEM    = UTC
MEAN_ELEMENT_THEORY = SGP/SGP4

EPOCH          = 2026-04-05T19:19:28.299360
MEAN_MOTION    = 14.14843831
ECCENTRICITY   = .0002921
INCLINATION    = 70.9737
RA_OF_ASC_NODE = 115.3868
ARG_OF_PERICENTER = 276.3903
MEAN_ANOMALY   = 256.0194

EPHEMERIS_TYPE = 0
CLASSIFICATION_TYPE = U
NORAD_CAT_ID   = 31793
ELEMENT_SET_NO = 999
REV_AT_EPOCH   = 96920
BSTAR          = -.46066E-4
MEAN_MOTION_DOT = -.137E-5
MEAN_MOTION_DDOT = 0

CCSDS_OMM_VERS = 2.0
CREATION_DATE  = 
ORIGINATOR     = 

OBJECT_NAME    = KORONAS-FOTON
OBJECT_ID      = 2009-003A
CENTER_NAME    = EARTH
REF_FRAME      = TEME
TIME_SYSTEM    = UTC
MEAN_ELEMENT_THEORY = SGP/SGP4

EPOCH          = 2026-04-05T20:38:22.939008
MEAN_MOTION    = 15.44128260
ECCENTRICITY   = .0011383
INCLINATION    = 82.4290
RA_OF_ASC_NODE = 247.6104
ARG_OF_PERICENTER = 61.0139
MEAN_ANOMALY   = 299.2248

EPHEMERIS_TYPE = 0
CLASSIFICATION_TYPE = U
NORAD_CAT_ID   = 33504
ELEMENT_SET_NO = 999
REV_AT_EPOCH   = 94993
BSTAR          = .32592E-3
MEAN_MOTION_DOT = .14995E-3
MEAN_MOTION_DDOT = 0

CCSDS_OMM_VERS = 2.0
CREATION_DATE  = 
ORIGINATOR     = 

OBJECT_NAME    = CZ-2C R/B
OBJECT_ID      = 2011-030B
CENTER_NAME    = EARTH
REF_FRAME      = TEME
TIME_SYSTEM    = UTC
MEAN_ELEMENT_THEORY = SGP/SGP4

EPOCH          = 2026-04-05T19:53:46.846752
MEAN_MOTION    = 14.81322152
ECCENTRICITY   = .0050924
INCLINATION    = 97.8589
RA_OF_ASC_NODE = 52.5592
ARG_OF_PERICENTER = 261.8895
MEAN_ANOMALY   = 127.8766

EPHEMERIS_TYPE = 0
CLASSIFICATION_TYPE = U
NORAD_CAT_ID   = 37731
ELEMENT_SET_NO = 999
REV_AT_EPOCH   = 79411
BSTAR          = .24538E-3
MEAN_MOTION_DOT = .1903E-4
MEAN_MOTION_DDOT = 0

CCSDS_OMM_VERS = 2.0
CREATION_DATE  = 
ORIGINATOR     = 

OBJECT_NAME    = H-2A R/B
OBJECT_ID      = 2012-025E
CENTER_NAME    = EARTH
REF_FRAME      = TEME
TIME_SYSTEM    = UTC
MEAN_ELEMENT_THEORY = SGP/SGP4

EPOCH          = 2026-04-05T19:56:01.578912
MEAN_MOTION    = 14.95362994
ECCENTRICITY   = .0043432
INCLINATION    = 98.4774
RA_OF_ASC_NODE = 65.0620
ARG_OF_PERICENTER = 222.9649
MEAN_ANOMALY   = 136.8175

EPHEMERIS_TYPE = 0
CLASSIFICATION_TYPE = U
NORAD_CAT_ID   = 38341
ELEMENT_SET_NO = 999
REV_AT_EPOCH   = 75227
BSTAR          = .28022E-3
MEAN_MOTION_DOT = .308E-4
MEAN_MOTION_DDOT = 0

CCSDS_OMM_VERS = 2.0
CREATION_DATE  = 
ORIGINATOR     = 

OBJECT_NAME    = SHIJIAN-16 (SJ-16)
OBJECT_ID      = 2013-057A
CENTER_NAME    = EARTH
REF_FRAME      = TEME
TIME_SYSTEM    = UTC
MEAN_ELEMENT_THEORY = SGP/SGP4

EPOCH          = 2026-04-05T20:17:59.921088
MEAN_MOTION    = 14.92444911
ECCENTRICITY   = .0015442
INCLINATION    = 74.9707
RA_OF_ASC_NODE = 133.6784
ARG_OF_PERICENTER = 42.2050
MEAN_ANOMALY   = 318.0324

EPHEMERIS_TYPE = 0
CLASSIFICATION_TYPE = U
NORAD_CAT_ID   = 39358
ELEMENT_SET_NO = 999
REV_AT_EPOCH   = 67555
BSTAR          = .14237E-3
MEAN_MOTION_DOT = .1434E-4
MEAN_MOTION_DDOT = 0

CCSDS_OMM_VERS = 2.0
CREATION_DATE  = 
ORIGINATOR     = 

OBJECT_NAME    = SL-4 R/B
OBJECT_ID      = 2014-021B
CENTER_NAME    = EARTH
REF_FRAME      = TEME
TIME_SYSTEM    = UTC
MEAN_ELEMENT_THEORY = SGP/SGP4

EPOCH          = 2026-04-05T13:33:51.137280
MEAN_MOTION    = 15.40212228
ECCENTRICITY   = .0094201
INCLINATION    = 51.6069
RA_OF_ASC_NODE = 206.0734
ARG_OF_PERICENTER = 201.0824
MEAN_ANOMALY   = 158.6266

EPHEMERIS_TYPE = 0
CLASSIFICATION_TYPE = U
NORAD_CAT_ID   = 39679
ELEMENT_SET_NO = 999
REV_AT_EPOCH   = 66041
BSTAR          = .42885E-3
MEAN_MOTION_DOT = .201E-3
MEAN_MOTION_DDOT = 0

